OBJECT_NAME,OBJECT_ID,EPOCH,MEAN_MOTION,ECCENTRICITY,INCLINATION,RA_OF_ASC_NODE,ARG_OF_PERICENTER,MEAN_ANOMALY,EPHEMERIS_TYPE,CLASSIFICATION_TYPE,NORAD_CAT_ID,ELEMENT_SET_NO,REV_AT_EPOCH,BSTAR,MEAN_MOTION_DOT,MEAN_MOTION_DDOT
ION SCV-004,2022-002K,2026-05-13T02:52:44.950944,15.30087952,.00090514,97.2861,191.4423,114.8106,245.4077,0,U,50993,999,23993,.11364786E-3,.3238E-4,0
ETV-A1,2022-002CE,2026-05-13T06:10:28.599744,15.39929282,.00068735,97.2899,199.6799,109.3721,250.8268,0,U,51060,999,24046,.1691069E-3,.6652E-4,0
BRO-5,2022-002CF,2026-05-13T05:48:51.840288,15.45480467,.00065887,97.3016,206.6532,99.2321,260.9673,0,U,51061,999,24085,.21786351E-3,.1036E-3,0
LUDI TANCE 1-01A (L-SAR 01A),2022-007A,2026-05-13T06:58:08.144256,14.88413754,.00016066,97.8091,141.2074,90.3469,269.7932,0,U,51284,999,23328,.46265822E-4,.375E-5,0
LUDI TANCE 1-01B (L-SAR 01B),2022-018A,2026-05-13T07:46:31.097856,14.88414564,.00015987,97.8098,141.2361,92.9150,267.2250,0,U,51822,999,22852,.43269779E-4,.347E-5,0
JILIN-1 GAOFEN 03D15,2022-019R,2026-05-13T06:19:23.187648,15.91716829,.00060289,97.3662,228.8024,233.3011,126.7710,0,U,51839,999,23455,.72447365E-3,.234731E-2,.22528915E-4
JILIN-1 GAOFEN 03D12,2022-019T,2026-05-13T07:14:34.085760,15.92833162,.00058527,97.3612,228.7863,221.8692,138.2135,0,U,51841,999,23456,.72340685E-3,.248302E-2,.25312489E-4
2022-023F,2022-023F,2026-05-13T07:05:13.931232,15.17858677,.01279248,63.4487,32.0977,343.9536,15.7540,0,U,51951,999,23241,.50367173E-3,.12477E-3,0
MERIDIAN 10,2022-030A,2026-05-13T01:52:40.469088,2.00616430,.67743073,62.6761,144.5673,272.8798,17.7269,0,U,52145,999,3032,0,.275E-5,0
OMNI-L1,2022-033A,2026-05-13T03:40:37.204032,14.82614064,.00061769,97.8394,213.0141,51.2761,308.9004,0,U,52157,999,22226,.14910719E-3,.1149E-4,0
ENMAP,2022-033C,2026-05-13T05:28:55.701408,14.74956059,.00014725,97.9785,215.9739,85.9481,274.1896,0,U,52159,999,22150,-.2605765E-4,-.225E-5,0
ARCSAT-1,2022-033E,2026-05-13T04:56:19.544928,15.52728523,.00038446,97.2741,224.9855,342.5386,17.5735,0,U,52161,999,23027,.12576369E-3,.7668E-4,0
GLOBAL-18,2022-034B,2026-05-13T04:55:43.296672,15.44785334,.00054993,52.9821,63.6253,128.2440,231.9060,0,U,52196,999,23155,.28296321E-3,.13058E-3,0
GAOFEN-3 03,2022-035A,2026-05-13T07:58:54.740928,14.42219832,.00010343,98.4078,142.4180,73.4652,286.6651,0,U,52200,999,21582,.90577896E-4,.255E-5,0
DAQI-1,2022-039A,2026-05-13T06:35:14.309952,14.57656150,.00042272,98.1464,72.8516,23.4478,336.6913,0,U,52257,999,21685,.7201084E-4,.283E-5,0
BRO-6,2022-047AE,2026-05-13T06:17:48.655680,15.48419256,.00051823,97.3396,223.7090,182.2557,177.8672,0,U,52422,999,22574,.36826757E-3,.19465E-3,0
JILIN-1 GAOFEN 3D27,2022-048B,2026-05-13T04:42:58.002624,15.68294079,.00055703,97.5672,244.1863,168.9621,191.1763,0,U,52444,999,22398,.49650843E-3,.55748E-3,0
JILIN-1 GAOFEN 3D28,2022-048C,2026-05-13T04:29:43.497600,15.70368784,.00043301,97.5614,244.2165,185.3854,174.7363,0,U,52445,999,22402,.4996448E-3,.61113E-3,0
VIGORIDE-3,2022-057AE,2026-05-12T23:07:20.777088,15.26898668,.00072118,97.6551,272.0261,243.3031,116.7470,0,U,52760,999,21978,.14052911E-3,.3636E-4,0
ION SCV-006,2022-057AF,2026-05-13T02:56:01.194720,15.44449314,.00165521,97.6053,280.0969,238.1948,121.7688,0,U,52761,999,22070,.15145142E-3,.6946E-4,0
SHERPA-AC1,2022-057AH,2026-05-13T03:33:46.566432,15.35753039,.00070863,97.6637,280.9389,207.9047,152.1817,0,U,52763,999,22032,.1405597E-3,.4804E-4,0
OMNI-L2,2022-057AR,2026-05-12T23:55:45.387840,14.81272494,.00083438,97.4731,197.7191,83.7375,276.4789,0,U,52771,999,21518,.108473E-3,.799E-5,0
STEP CUBE LAB-II,2022-065D,2026-05-13T07:55:28.713216,14.63245475,.00096125,98.2175,277.3497,128.9596,231.2464,0,U,52897,999,20640,.12902442E-3,.617E-5,0
RANDEV,2022-065E,2026-05-13T08:10:15.408768,14.63630488,.00088961,98.2162,277.6960,128.8477,231.3520,0,U,52898,999,20615,.1197319E-3,.574E-5,0
SNUGLITE-II,2022-065F,2026-05-12T15:14:22.098336,14.64278546,.0008531,98.2154,277.5396,130.0913,230.1038,0,U,52899,999,20579,.12346E-3,.603E-5,0
MIMAN,2022-065G,2026-05-13T03:21:02.386944,14.61803023,.00086591,98.2212,275.8087,130.1617,230.0344,0,U,52900,999,20532,.77026033E-4,.337E-5,0
STARLINK-4362,2022-077A,2026-05-13T05:48:35.218656,15.05650948,.00012535,97.4982,313.5100,104.5488,255.5878,0,U,53043,999,21062,.937952E-5,.76E-6,0
