ION SCV-004             
1 50993U 22002K   26133.11996471  .00003238  00000+0  11365-3 0  9999
2 50993  97.2861 191.4423 0009051 114.8106 245.4077 15.30087952239936
ETV-A1                  
1 51060U 22002CE  26133.25727546  .00006652  00000+0  16911-3 0  9990
2 51060  97.2899 199.6799 0006873 109.3721 250.8268 15.39929282240462
BRO-5                   
1 51061U 22002CF  26133.24226667  .00010360  00000+0  21786-3 0  9995
2 51061  97.3016 206.6532 0006588  99.2321 260.9673 15.45480467240854
LUDI TANCE 1-01A (L-SA*)
1 51284U 22007A   26133.29037204  .00000375  00000+0  46266-4 0  9995
2 51284  97.8091 141.2074 0001606  90.3469 269.7932 14.88413754233280
LUDI TANCE 1-01B (L-SA*)
1 51822U 22018A   26133.32397104  .00000347  00000+0  43270-4 0  9998
2 51822  97.8098 141.2361 0001598  92.9150 267.2250 14.88414564228526
JILIN-1 GAOFEN 03D15    
1 51839U 22019R   26133.26346282  .00234731  22529-4  72447-3 0  9999
2 51839  97.3662 228.8024 0006028 233.3011 126.7710 15.91716829234558
JILIN-1 GAOFEN 03D12    
1 51841U 22019T   26133.30178340  .00248302  25312-4  72341-3 0  9990
2 51841  97.3612 228.7863 0005852 221.8692 138.2135 15.92833162234568
2022-023F               
1 51951U 22023F   26133.29530013  .00012477  00000+0  50367-3 0  9992
2 51951  63.4487  32.0977 0127924 343.9536  15.7540 15.17858677232410
MERIDIAN 10             
1 52145U 22030A   26133.07824617  .00000275  00000+0  00000+0 0  9996
2 52145  62.6761 144.5673 6774307 272.8798  17.7269  2.00616430 30326
OMNI-L1                 
1 52157U 22033A   26133.15320838  .00001149  00000+0  14911-3 0  9998
2 52157  97.8394 213.0141 0006176  51.2761 308.9004 14.82614064222260
ENMAP                   
1 52159U 22033C   26133.22842247 -.00000225  00000+0 -26058-4 0  9993
2 52159  97.9785 215.9739 0001472  85.9481 274.1896 14.74956059221501
ARCSAT-1                
1 52161U 22033E   26133.20578177  .00007668  00000+0  12576-3 0  9997
2 52161  97.2741 224.9855 0003844 342.5386  17.5735 15.52728523230274
GLOBAL-18               
1 52196U 22034B   26133.20536223  .00013058  00000+0  28296-3 0  9998
2 52196  52.9821  63.6253 0005499 128.2440 231.9060 15.44785334231556
GAOFEN-3 03             
1 52200U 22035A   26133.33257802  .00000255  00000+0  90578-4 0  9990
2 52200  98.4078 142.4180 0001034  73.4652 286.6651 14.42219832215820
DAQI-1                  
1 52257U 22039A   26133.27447118  .00000283  00000+0  72011-4 0  9993
2 52257  98.1464  72.8516 0004227  23.4478 336.6913 14.57656150216850
BRO-6                   
1 52422U 22047AE  26133.26236870  .00019465  00000+0  36827-3 0  9992
2 52422  97.3396 223.7090 0005182 182.2557 177.8672 15.48419256225746
JILIN-1 GAOFEN 3D27     
1 52444U 22048B   26133.19650466  .00055748  00000+0  49651-3 0  9993
2 52444  97.5672 244.1863 0005570 168.9621 191.1763 15.68294079223988
JILIN-1 GAOFEN 3D28     
1 52445U 22048C   26133.18730900  .00061113  00000+0  49964-3 0  9995
2 52445  97.5614 244.2165 0004330 185.3854 174.7363 15.70368784224022
VIGORIDE-3              
1 52760U 22057AE  26132.96343492  .00003636  00000+0  14053-3 0  9993
2 52760  97.6551 272.0261 0007211 243.3031 116.7470 15.26898668219784
ION SCV-006             
1 52761U 22057AF  26133.12223605  .00006946  00000+0  15145-3 0  9996
2 52761  97.6053 280.0969 0016552 238.1948 121.7688 15.44449314220704
SHERPA-AC1              
1 52763U 22057AH  26133.14845563  .00004804  00000+0  14056-3 0  9994
2 52763  97.6637 280.9389 0007086 207.9047 152.1817 15.35753039220327
OMNI-L2                 
1 52771U 22057AR  26132.99705310  .00000799  00000+0  10847-3 0  9993
2 52771  97.4731 197.7191 0008343  83.7375 276.4789 14.81272494215183
STEP CUBE LAB-II        
1 52897U 22065D   26133.33019344  .00000617  00000+0  12902-3 0  9998
2 52897  98.2175 277.3497 0009612 128.9596 231.2464 14.63245475206407
RANDEV                  
1 52898U 22065E   26133.34045612  .00000574  00000+0  11973-3 0  9996
2 52898  98.2162 277.6960 0008896 128.8477 231.3520 14.63630488206150
SNUGLITE-II             
1 52899U 22065F   26132.63497799  .00000603  00000+0  12346-3 0  9993
2 52899  98.2154 277.5396 0008531 130.0913 230.1038 14.64278546205794
MIMAN                   
1 52900U 22065G   26133.13961096  .00000337  00000+0  77026-4 0  9999
2 52900  98.2212 275.8087 0008659 130.1617 230.0344 14.61803023205322
STARLINK-4362           
1 53043U 22077A   26133.24207429  .00000076  00000+0  93795-5 0  9998
2 53043  97.4982 313.5100 0001253 104.5488 255.5878 15.05650948210624
